OBJECT_NAME,OBJECT_ID,EPOCH,MEAN_MOTION,ECCENTRICITY,INCLINATION,RA_OF_ASC_NODE,ARG_OF_PERICENTER,MEAN_ANOMALY,EPHEMERIS_TYPE,CLASSIFICATION_TYPE,NORAD_CAT_ID,ELEMENT_SET_NO,REV_AT_EPOCH,BSTAR,MEAN_MOTION_DOT,MEAN_MOTION_DDOT
STARLINK-36465,2026-005V,2026-07-13T03:56:30.342912,15.27587908,.00018122,42.9987,249.5942,283.2214,76.8436,0,U,67423,999,2788,.40866954E-3,.11003E-3,0
STARLINK-36362,2026-005W,2026-07-13T11:26:55.652064,15.27595200,.00018404,43.0016,247.6371,279.5234,80.5409,0,U,67424,999,2793,.30657069E-3,.8187E-4,0
STARLINK-36447,2026-005X,2026-07-13T11:15:49.426848,15.27599290,.00026415,43.0037,247.5811,293.1711,66.8862,0,U,67425,999,2793,.4021444E-3,.10827E-3,0
STARLINK-36146,2026-005Y,2026-07-13T12:05:47.014368,15.27599023,.00019543,43.0003,247.8400,280.3737,79.6895,0,U,67426,999,2792,.41135982E-3,.11081E-3,0
STARLINK-36459,2026-005Z,2026-07-13T04:03:54.212544,15.27586172,.00011158,42.9958,249.6231,262.0196,98.0529,0,U,67427,999,2787,.30901032E-3,.8252E-4,0
STARLINK-36464,2026-005AA,2026-07-13T11:17:40.926912,15.27597252,.00040228,43.0077,247.5929,306.5047,53.5434,0,U,67428,999,2792,.42374568E-3,.11424E-3,0
STARLINK-36513,2026-005AB,2026-07-13T11:08:27.305952,15.27571949,.00019245,43.0000,247.5315,295.8781,64.1873,0,U,67429,999,2792,.53516365E-3,.1449E-3,0
STARLINK-36515,2026-005AC,2026-07-13T03:49:07.770144,15.27581385,.00010678,42.9979,249.5501,262.0733,97.9997,0,U,67430,999,2787,.48750525E-3,.13178E-3,0
STARLINK-36443,2026-005AD,2026-07-13T12:31:28.299648,15.27589349,.00015891,43.0002,247.1007,254.8172,105.2504,0,U,67431,999,2794,.36171759E-3,.9708E-4,0
STARLINK-36460,2026-005AE,2026-07-13T04:18:42.225696,15.27587369,.0001291,42.9986,249.6988,270.6920,89.3783,0,U,67432,999,2787,.33511E-3,.8973E-4,0
YAOGAN-50 01,2026-006A,2026-07-13T06:06:24.541344,13.83244547,.0000898,142.0410,341.7336,288.2812,71.7810,0,U,67433,999,2504,.10006E-3,.299E-5,0
HULIANWANG DIGUI-137,2026-007A,2026-07-13T14:51:25.177824,13.29326927,.00009018,50.0096,351.0594,109.0991,250.9979,0,U,67435,999,2430,.15990696E-4,-.117E-5,0
HULIANWANG DIGUI-138,2026-007B,2026-07-13T15:15:31.215744,13.29325258,.00009009,50.0075,351.1152,110.8219,249.2750,0,U,67436,999,2430,.15396063E-4,-.117E-5,0
HULIANWANG DIGUI-139,2026-007C,2026-07-13T15:03:15.079968,13.29328342,.00008963,50.0048,351.0276,98.7721,261.3252,0,U,67437,999,2430,.42345353E-4,-.104E-5,0
HULIANWANG DIGUI-140,2026-007D,2026-07-13T15:27:30.838752,13.29325998,.00008832,50.0069,351.1510,111.4735,248.6231,0,U,67438,999,2430,.41574342E-4,-.105E-5,0
HULIANWANG DIGUI-141,2026-007E,2026-07-13T14:39:21.189888,13.29326736,.00008887,50.0063,350.9670,109.7042,250.3926,0,U,67439,999,2430,.1069909E-5,-.124E-5,0
HULIANWANG DIGUI-142,2026-007F,2026-07-13T14:27:22.024800,13.29326558,.00008932,50.0139,351.0383,108.4868,251.6102,0,U,67440,999,2430,.2148654E-4,-.114E-5,0
HULIANWANG DIGUI-143,2026-007G,2026-07-13T14:15:23.919840,13.29324896,.00007503,50.0119,350.9663,111.2003,248.8950,0,U,67441,999,2430,.7376619E-5,-.121E-5,0
HULIANWANG DIGUI-144,2026-007H,2026-07-13T10:26:35.442816,13.29329147,.00008946,50.0105,351.4460,112.3029,247.7938,0,U,67442,999,2428,.23748285E-4,-.113E-5,0
HULIANWANG DIGUI-145,2026-007J,2026-07-13T10:14:49.597152,13.29325690,.00008557,50.0110,351.4091,106.5631,253.5335,0,U,67443,999,2428,.28578239E-4,-.111E-5,0
STARLINK-36542,2026-008A,2026-07-13T10:59:37.457088,15.27589250,.00016163,43.0008,215.2415,274.7329,85.3338,0,U,67445,999,2880,.13890939E-3,.3563E-4,0
STARLINK-36539,2026-008B,2026-07-13T09:45:49.710240,15.27570078,.0001409,42.9991,215.7118,289.2672,70.8027,0,U,67446,999,2879,-.77204965E-4,-.2385E-4,0
STARLINK-36440,2026-008C,2026-07-13T09:51:09.514656,15.27591098,.00018953,42.9993,214.8651,294.5702,65.4952,0,U,67447,999,2880,.27843665E-3,.741E-4,0
STARLINK-36423,2026-008D,2026-07-13T10:22:37.046208,15.27592341,.00014853,43.0009,215.0443,277.1075,82.9608,0,U,67448,999,2880,.29523473E-3,.7874E-4,0
STARLINK-36519,2026-008E,2026-07-13T10:44:47.800608,15.27614988,.00027694,43.0013,215.1546,258.2449,101.8092,0,U,67449,999,2880,.58796396E-3,.1597E-3,0
STARLINK-36525,2026-008F,2026-07-13T12:13:25.487328,15.27594331,.00017905,43.0029,214.7583,285.7978,74.2676,0,U,67450,999,2881,.27005952E-3,.718E-4,0
STARLINK-36511,2026-008G,2026-07-13T09:31:01.043040,15.27601974,.00032897,43.0028,215.6438,301.0462,59.0066,0,U,67451,999,2879,.46432346E-3,.12546E-3,0
STARLINK-36524,2026-008H,2026-07-13T09:42:06.899328,15.27604582,.00011866,42.9961,215.6920,285.1526,74.9194,0,U,67452,999,2879,.43749182E-3,.11805E-3,0
STARLINK-36518,2026-008J,2026-07-13T12:20:50.106048,15.27612117,.00016526,43.0020,214.7804,284.1324,75.9344,0,U,67453,999,2881,.44479037E-3,.12009E-3,0
STARLINK-36517,2026-008K,2026-07-13T10:55:55.339104,15.27594215,.00016897,43.0006,215.2235,277.2431,82.8229,0,U,67454,999,2880,.2537078E-3,.6729E-4,0
