STARLINK-36465          
1 67423U 26005V   26194.16424008  .00011003  00000+0  40867-3 0  9994
2 67423  42.9987 249.5942 0001812 283.2214  76.8436 15.27587908 27883
STARLINK-36362          
1 67424U 26005W   26194.47703301  .00008187  00000+0  30657-3 0  9990
2 67424  43.0016 247.6371 0001840 279.5234  80.5409 15.27595200 27937
STARLINK-36447          
1 67425U 26005X   26194.46932207  .00010827  00000+0  40214-3 0  9993
2 67425  43.0037 247.5811 0002641 293.1711  66.8862 15.27599290 27934
STARLINK-36146          
1 67426U 26005Y   26194.50401637  .00011081  00000+0  41136-3 0  9994
2 67426  43.0003 247.8400 0001954 280.3737  79.6895 15.27599023 27928
STARLINK-36459          
1 67427U 26005Z   26194.16937746  .00008252  00000+0  30901-3 0  9996
2 67427  42.9958 249.6231 0001115 262.0196  98.0529 15.27586172 27877
STARLINK-36464          
1 67428U 26005AA  26194.47061258  .00011424  00000+0  42375-3 0  9990
2 67428  43.0077 247.5929 0004022 306.5047  53.5434 15.27597252 27920
STARLINK-36513          
1 67429U 26005AB  26194.46420493  .00014490  00000+0  53516-3 0  9995
2 67429  43.0000 247.5315 0001924 295.8781  64.1873 15.27571949 27929
STARLINK-36515          
1 67430U 26005AC  26194.15911771  .00013178  00000+0  48751-3 0  9994
2 67430  42.9979 249.5501 0001067 262.0733  97.9997 15.27581385 27874
STARLINK-36443          
1 67431U 26005AD  26194.52185532  .00009708  00000+0  36172-3 0  9992
2 67431  43.0002 247.1007 0001589 254.8172 105.2504 15.27589349 27947
STARLINK-36460          
1 67432U 26005AE  26194.17965539  .00008973  00000+0  33511-3 0  9994
2 67432  42.9986 249.6988 0001291 270.6920  89.3783 15.27587369 27872
YAOGAN-50 01            
1 67433U 26006A   26194.25445071  .00000299  00000+0  10006-3 0  9996
2 67433 142.0410 341.7336 0000898 288.2812  71.7810 13.83244547 25046
HULIANWANG DIGUI-137    
1 67435U 26007A   26194.61904141 -.00000117  00000+0  15991-4 0  9996
2 67435  50.0096 351.0594 0000901 109.0991 250.9979 13.29326927 24307
HULIANWANG DIGUI-138    
1 67436U 26007B   26194.63577796 -.00000117  00000+0  15396-4 0  9990
2 67436  50.0075 351.1152 0000900 110.8219 249.2750 13.29325258 24302
HULIANWANG DIGUI-139    
1 67437U 26007C   26194.62725787 -.00000104  00000+0  42345-4 0  9995
2 67437  50.0048 351.0276 0000896  98.7721 261.3252 13.29328342 24304
HULIANWANG DIGUI-140    
1 67438U 26007D   26194.64410693 -.00000105  00000+0  41574-4 0  9999
2 67438  50.0069 351.1510 0000883 111.4735 248.6231 13.29325998 24303
HULIANWANG DIGUI-141    
1 67439U 26007E   26194.61066192 -.00000124  00000+0  10699-5 0  9994
2 67439  50.0063 350.9670 0000888 109.7042 250.3926 13.29326736 24300
HULIANWANG DIGUI-142    
1 67440U 26007F   26194.60233825 -.00000114  00000+0  21487-4 0  9999
2 67440  50.0139 351.0383 0000893 108.4868 251.6102 13.29326558 24309
HULIANWANG DIGUI-143    
1 67441U 26007G   26194.59402685 -.00000121  00000+0  73766-5 0  9996
2 67441  50.0119 350.9663 0000750 111.2003 248.8950 13.29324896 24304
HULIANWANG DIGUI-144    
1 67442U 26007H   26194.43513244 -.00000113  00000+0  23748-4 0  9999
2 67442  50.0105 351.4460 0000894 112.3029 247.7938 13.29329147 24285
HULIANWANG DIGUI-145    
1 67443U 26007J   26194.42696293 -.00000111  00000+0  28578-4 0  9999
2 67443  50.0110 351.4091 0000855 106.5631 253.5335 13.29325690 24288
STARLINK-36542          
1 67445U 26008A   26194.45807242  .00003563  00000+0  13891-3 0  9997
2 67445  43.0008 215.2415 0001616 274.7329  85.3338 15.27589250 28803
STARLINK-36539          
1 67446U 26008B   26194.40682535 -.00002385  00000+0 -77205-4 0  9992
2 67446  42.9991 215.7118 0001409 289.2672  70.8027 15.27570078 28790
STARLINK-36440          
1 67447U 26008C   26194.41052679  .00007410  00000+0  27844-3 0  9999
2 67447  42.9993 214.8651 0001895 294.5702  65.4952 15.27591098 28801
STARLINK-36423          
1 67448U 26008D   26194.43237322  .00007874  00000+0  29523-3 0  9992
2 67448  43.0009 215.0443 0001485 277.1075  82.9608 15.27592341 28803
STARLINK-36519          
1 67449U 26008E   26194.44777547  .00015970  00000+0  58796-3 0  9992
2 67449  43.0013 215.1546 0002769 258.2449 101.8092 15.27614988 28805
STARLINK-36525          
1 67450U 26008F   26194.50932277  .00007180  00000+0  27006-3 0  9998
2 67450  43.0029 214.7583 0001790 285.7978  74.2676 15.27594331 28816
STARLINK-36511          
1 67451U 26008G   26194.39653985  .00012546  00000+0  46432-3 0  9998
2 67451  43.0028 215.6438 0003289 301.0462  59.0066 15.27601974 28793
STARLINK-36524          
1 67452U 26008H   26194.40424652  .00011805  00000+0  43749-3 0  9993
2 67452  42.9961 215.6920 0001186 285.1526  74.9194 15.27604582 28797
STARLINK-36518          
1 67453U 26008J   26194.51446882  .00012009  00000+0  44479-3 0  9993
2 67453  43.0020 214.7804 0001652 284.1324  75.9344 15.27612117 28814
STARLINK-36517          
1 67454U 26008K   26194.45550161  .00006729  00000+0  25371-3 0  9995
2 67454  43.0006 215.2235 0001689 277.2431  82.8229 15.27594215 28801
